start=new Date('2023-04-29T00:00:00.000Z').valueOf();
sats=[{"OBJECT_ID":"2020-025BA","TLE_LINE1":"1 45579U 20025BA  23118.23640158  .00020107  00000-0  13658-2 0  9998","ARG_OF_PERICENTER":"79.4371","SITE":"AFETR","MEAN_MOTION":"15.06375516","SEMIMAJOR_AXIS":"6925.424","INCLINATION":"53.0544","REF_FRAME":"TEME","TLE_LINE2":"2 45579  53.0544  54.4975 0001516  79.4371 280.6789 15.06375516168342","PERIAPSIS":"546.239","CLASSIFICATION_TYPE":"U","MEAN_ANOMALY":"280.6789","GP_ID":"230883140","BSTAR":"0.00136580000000","TIME_SYSTEM":"UTC","APOAPSIS":"548.338","DECAY_DATE":null,"MEAN_MOTION_DDOT":"0.0000000000000","ECCENTRICITY":"0.00015160","COUNTRY_CODE":"US","OBJECT_NAME":"STARLINK-1332","LAUNCH_DATE":"2020-04-22","CENTER_NAME":"EARTH","RA_OF_ASC_NODE":"54.4975","FILE":"3895770","MEAN_MOTION_DOT":"0.00020107","PERIOD":"95.594","REV_AT_EPOCH":"16834","ELEMENT_SET_NO":"999","EPHEMERIS_TYPE":"0","RCS_SIZE":"LARGE","MEAN_ELEMENT_THEORY":"SGP4","NORAD_CAT_ID":"45579","EPOCH":"2023-04-28T05:40:25.096512","OBJECT_TYPE":"PAYLOAD"},{"ECCENTRICITY":"0.00013200","MEAN_MOTION_DDOT":"0.0000000000000","COUNTRY_CODE":"US","LAUNCH_DATE":"2020-04-22","OBJECT_NAME":"STARLINK-1333","MEAN_MOTION_DOT":"0.00008148","FILE":"3895792","RA_OF_ASC_NODE":"103.7382","CENTER_NAME":"EARTH","PERIOD":"95.592","EPHEMERIS_TYPE":"0","ELEMENT_SET_NO":"999","REV_AT_EPOCH":"16706","MEAN_ELEMENT_THEORY":"SGP4","RCS_SIZE":"LARGE","OBJECT_TYPE":"PAYLOAD","EPOCH":"2023-04-28T08:50:09.414528","NORAD_CAT_ID":"45580","ARG_OF_PERICENTER":"89.4829","TLE_LINE1":"1 45580U 20025BB  23118.36816452  .00008148  00000-0  56530-3 0  9994","OBJECT_ID":"2020-025BB","SITE":"AFETR","SEMIMAJOR_AXIS":"6925.352","MEAN_MOTION":"15.06398908","CLASSIFICATION_TYPE":"U","TLE_LINE2":"2 45580  53.0537 103.7382 0001320  89.4829 270.6311 15.06398908167066","REF_FRAME":"TEME","PERIAPSIS":"546.303","INCLINATION":"53.0537","MEAN_ANOMALY":"270.6311","GP_ID":"230890258","BSTAR":"0.00056530000000","APOAPSIS":"548.131","DECAY_DATE":null,"TIME_SYSTEM":"UTC"},{"INCLINATION":"53.0529","REF_FRAME":"TEME","TLE_LINE2":"2 45581  53.0529  92.5251 0001234  88.4575 271.6556 15.06396767167242","PERIAPSIS":"546.369","CLASSIFICATION_TYPE":"U","MEAN_MOTION":"15.06396767","SEMIMAJOR_AXIS":"6925.358","SITE":"AFETR","OBJECT_ID":"2020-025BC","ARG_OF_PERICENTER":"88.4575","TLE_LINE1":"1 45581U 20025BC  23118.63814594  .00008842  00000-0  61176-3 0  9993","TIME_SYSTEM":"UTC","DECAY_DATE":null,"APOAPSIS":"548.078","BSTAR":"0.00061176000000","GP_ID":"230890966","MEAN_ANOMALY":"271.6556","CENTER_NAME":"EARTH","RA_OF_ASC_NODE":"92.5251","FILE":"3895830","MEAN_MOTION_DOT":"0.00008842","OBJECT_NAME":"STARLINK-1335","LAUNCH_DATE":"2020-04-22","COUNTRY_CODE":"US","MEAN_MOTION_DDOT":"0.0000000000000","ECCENTRICITY":"0.00012340","NORAD_CAT_ID":"45581","EPOCH":"2023-04-28T15:18:55.809216","OBJECT_TYPE":"PAYLOAD","RCS_SIZE":"LARGE","MEAN_ELEMENT_THEORY":"SGP4","REV_AT_EPOCH":"16724","ELEMENT_SET_NO":"999","EPHEMERIS_TYPE":"0","PERIOD":"95.592"},{"LAUNCH_DATE":"2020-04-22","OBJECT_NAME":"STARLINK-1337","MEAN_MOTION_DOT":"0.00014418","FILE":"3895815","RA_OF_ASC_NODE":"92.4212","CENTER_NAME":"EARTH","ECCENTRICITY":"0.00013940","MEAN_MOTION_DDOT":"0.0000000000000","COUNTRY_CODE":"US","MEAN_ELEMENT_THEORY":"SGP4","RCS_SIZE":"LARGE","OBJECT_TYPE":"PAYLOAD","EPOCH":"2023-04-28T15:50:47.505984","NORAD_CAT_ID":"45582","PERIOD":"95.590","EPHEMERIS_TYPE":"0","ELEMENT_SET_NO":"999","REV_AT_EPOCH":"16724","SEMIMAJOR_AXIS":"6925.269","MEAN_MOTION":"15.06426046","CLASSIFICATION_TYPE":"U","PERIAPSIS":"546.168","TLE_LINE2":"2 45582  53.0541  92.4212 0001394  92.5297 267.5851 15.06426046167243","REF_FRAME":"TEME","INCLINATION":"53.0541","ARG_OF_PERICENTER":"92.5297","TLE_LINE1":"1 45582U 20025BD  23118.66027206  .00014418  00000-0  98417-3 0  9997","OBJECT_ID":"2020-025BD","SITE":"AFETR","BSTAR":"0.00098417000000","APOAPSIS":"548.099","DECAY_DATE":null,"TIME_SYSTEM":"UTC","MEAN_ANOMALY":"267.5851","GP_ID":"230890543"},{"MEAN_MOTION":"15.06415049","SEMIMAJOR_AXIS":"6925.302","INCLINATION":"53.0530","REF_FRAME":"TEME","TLE_LINE2":"2 45583  53.0530  92.5061 0001530  88.0363 272.0801 15.06415049167248","PERIAPSIS":"546.108","CLASSIFICATION_TYPE":"U","OBJECT_ID":"2020-025BE","ARG_OF_PERICENTER":"88.0363","TLE_LINE1":"1 45583U 20025BE  23118.64184192  .00007676  00000-0  53340-3 0  9998","SITE":"AFETR","BSTAR":"0.00053340000000","TIME_SYSTEM":"UTC","DECAY_DATE":null,"APOAPSIS":"548.227","MEAN_ANOMALY":"272.0801","GP_ID":"230890016","OBJECT_NAME":"STARLINK-1340","LAUNCH_DATE":"2020-04-22","CENTER_NAME":"EARTH","RA_OF_ASC_NODE":"92.5061","MEAN_MOTION_DOT":"0.00007676","FILE":"3895793","MEAN_MOTION_DDOT":"0.0000000000000","ECCENTRICITY":"0.00015300","COUNTRY_CODE":"US","RCS_SIZE":"LARGE","MEAN_ELEMENT_THEORY":"SGP4","NORAD_CAT_ID":"45583","EPOCH":"2023-04-28T15:24:15.141888","OBJECT_TYPE":"PAYLOAD","PERIOD":"95.591","REV_AT_EPOCH":"16724","ELEMENT_SET_NO":"999","EPHEMERIS_TYPE":"0"},{"REV_AT_EPOCH":"130","ELEMENT_SET_NO":"999","EPHEMERIS_TYPE":"0","PERIOD":"92.636","NORAD_CAT_ID":"45584","EPOCH":"2023-04-28T14:00:01.000224","OBJECT_TYPE":"PAYLOAD","RCS_SIZE":"LARGE","MEAN_ELEMENT_THEORY":"SGP4","COUNTRY_CODE":"US","MEAN_MOTION_DDOT":"0.0000000000000","ECCENTRICITY":"0.00010470","CENTER_NAME":"EARTH","RA_OF_ASC_NODE":"89.1574","FILE":"3895770","MEAN_MOTION_DOT":"0.01296755","OBJECT_NAME":"STARLINK-1343","LAUNCH_DATE":"2020-04-22","GP_ID":"230883390","MEAN_ANOMALY":"55.2588","TIME_SYSTEM":"UTC","APOAPSIS":"404.408","DECAY_DATE":null,"BSTAR":"0.01750600000000","SITE":"AFETR","OBJECT_ID":"2020-025BF","ARG_OF_PERICENTER":"95.2505","TLE_LINE1":"1 45584U 20025BF  23118.58334491  .01296755  00000-0  17506-1 0  9992","INCLINATION":"53.0493","REF_FRAME":"TEME","TLE_LINE2":"2 45584  53.0493  89.1574 0001047  95.2505  55.2588 15.54469243  1304","PERIAPSIS":"402.988","CLASSIFICATION_TYPE":"U","MEAN_MOTION":"15.54469243","SEMIMAJOR_AXIS":"6781.833"},{"MEAN_MOTION":"15.06414432","SEMIMAJOR_AXIS":"6925.304","INCLINATION":"53.0545","TLE_LINE2":"2 45586  53.0545  93.3474 0001451  88.5629 271.5527 15.06414432167802","REF_FRAME":"TEME","PERIAPSIS":"546.164","CLASSIFICATION_TYPE":"U","OBJECT_ID":"2020-025BH","ARG_OF_PERICENTER":"88.5629","TLE_LINE1":"1 45586U 20025BH  23118.45386074  .00011832  00000-0  81157-3 0  9999","SITE":"AFETR","BSTAR":"0.00081157000000","TIME_SYSTEM":"UTC","APOAPSIS":"548.174","DECAY_DATE":null,"MEAN_ANOMALY":"271.5527","GP_ID":"230881641","OBJECT_NAME":"STARLINK-1347","LAUNCH_DATE":"2020-04-22","CENTER_NAME":"EARTH","RA_OF_ASC_NODE":"93.3474","FILE":"3895770","MEAN_MOTION_DOT":"0.00011832","MEAN_MOTION_DDOT":"0.0000000000000","ECCENTRICITY":"0.00014510","COUNTRY_CODE":"US","RCS_SIZE":"LARGE","MEAN_ELEMENT_THEORY":"SGP4","NORAD_CAT_ID":"45586","EPOCH":"2023-04-28T10:53:33.567936","OBJECT_TYPE":"PAYLOAD","PERIOD":"95.591","REV_AT_EPOCH":"16780","ELEMENT_SET_NO":"999","EPHEMERIS_TYPE":"0"},{"RCS_SIZE":"LARGE","MEAN_ELEMENT_THEORY":"SGP4","NORAD_CAT_ID":"45587","EPOCH":"2023-04-28T14:57:42.586848","OBJECT_TYPE":"PAYLOAD","PERIOD":"95.591","REV_AT_EPOCH":"16724","ELEMENT_SET_NO":"999","EPHEMERIS_TYPE":"0","OBJECT_NAME":"STARLINK-1349","LAUNCH_DATE":"2020-04-22","CENTER_NAME":"EARTH","RA_OF_ASC_NODE":"92.5916","FILE":"3895816","MEAN_MOTION_DOT":"0.00009921","MEAN_MOTION_DDOT":"0.0000000000000","ECCENTRICITY":"0.00011610","COUNTRY_CODE":"US","BSTAR":"0.00068370000000","TIME_SYSTEM":"UTC","APOAPSIS":"547.974","DECAY_DATE":null,"MEAN_ANOMALY":"268.8686","GP_ID":"230890562","MEAN_MOTION":"15.06414252","SEMIMAJOR_AXIS":"6925.305","INCLINATION":"53.0536","PERIAPSIS":"546.366","TLE_LINE2":"2 45587  53.0536  92.5916 0001161  91.2435 268.8686 15.06414252167242","REF_FRAME":"TEME","CLASSIFICATION_TYPE":"U","OBJECT_ID":"2020-025BJ","ARG_OF_PERICENTER":"91.2435","TLE_LINE1":"1 45587U 20025BJ  23118.62340957  .00009921  00000-0  68370-3 0  9997","SITE":"AFETR"},{"PERIOD":"95.591","REV_AT_EPOCH":"16719","ELEMENT_SET_NO":"999","EPHEMERIS_TYPE":"0","RCS_SIZE":"LARGE","MEAN_ELEMENT_THEORY":"SGP4","NORAD_CAT_ID":"45588","EPOCH":"2023-04-28T08:03:43.012800","OBJECT_TYPE":"PAYLOAD","MEAN_MOTION_DDOT":"0.0000000000000","ECCENTRICITY":"0.00012940","COUNTRY_CODE":"US","OBJECT_NAME":"STARLINK-1360","LAUNCH_DATE":"2020-04-22","CENTER_NAME":"EARTH","RA_OF_ASC_NODE":"93.8854","FILE":"3895881","MEAN_MOTION_DOT":"0.00012525","MEAN_ANOMALY":"300.0904","GP_ID":"230892455","BSTAR":"0.00085794000000","TIME_SYSTEM":"UTC","DECAY_DATE":null,"APOAPSIS":"548.066","OBJECT_ID":"2020-025BK","ARG_OF_PERICENTER":"60.0213","TLE_LINE1":"1 45588U 20025BK  23118.33591450  .00012525  00000-0  85794-3 0  9995","SITE":"AFETR","MEAN_MOTION":"15.06414279","SEMIMAJOR_AXIS":"6925.305","INCLINATION":"53.0528","REF_FRAME":"TEME","TLE_LINE2":"2 45588  53.0528  93.8854 0001294  60.0213 300.0904 15.06414279167199","PERIAPSIS":"546.274","CLASSIFICATION_TYPE":"U"},{"SITE":"AFETR","OBJECT_ID":"2020-025BL","ARG_OF_PERICENTER":"90.9885","TLE_LINE1":"1 45589U 20025BL  23118.39857324  .00014002  00000-0  95654-3 0  9995","PERIAPSIS":"546.184","TLE_LINE2":"2 45589  53.0533  93.5990 0001402  90.9885 269.1264 15.06419219167803","REF_FRAME":"TEME","INCLINATION":"53.0533","CLASSIFICATION_TYPE":"U","MEAN_MOTION":"15.06419219","SEMIMAJOR_AXIS":"6925.290","GP_ID":"230882892","MEAN_ANOMALY":"269.1264","TIME_SYSTEM":"UTC","APOAPSIS":"548.126","DECAY_DATE":null,"BSTAR":"0.00095654000000","COUNTRY_CODE":"US","MEAN_MOTION_DDOT":"0.0000000000000","ECCENTRICITY":"0.00014020","RA_OF_ASC_NODE":"93.5990","CENTER_NAME":"EARTH","FILE":"3895770","MEAN_MOTION_DOT":"0.00014002","LAUNCH_DATE":"2020-04-22","OBJECT_NAME":"STARLINK-1364","ELEMENT_SET_NO":"999","REV_AT_EPOCH":"16780","EPHEMERIS_TYPE":"0","PERIOD":"95.591","NORAD_CAT_ID":"45589","OBJECT_TYPE":"PAYLOAD","EPOCH":"2023-04-28T09:33:56.727936","RCS_SIZE":"LARGE","MEAN_ELEMENT_THEORY":"SGP4"}];
